{"fetched_at":"2026-03-29T16:36:15Z","count":15609,"tles":[{"name":"STARLINK-32759","line1":"1 62751U 25014S   26087.58147902  .00018223  00000+0  66999-3 0  9999","line2":"2 62751  42.9995  51.4220 0000803 258.4174 101.6587 15.27585574 66107","category":"Starlink"}]}