{
  "norad_id": 62751,
  "name": "STARLINK-32759",
  "history": [
    {
      "epoch": "2026-03-28T13:57:19.787328",
      "apogee_km": 483.5833574324324,
      "perigee_km": 482.4814536259046,
      "latitude_deg": -35.18060397586905,
      "longitude_deg": 150.92198592005298,
      "semi_major_axis_km": 6861.169405529168,
      "eccentricity": 8.03e-05,
      "inclination_deg": 42.9995,
      "raan_deg": 51.422,
      "arg_perigee_deg": 258.4174,
      "mean_anomaly_deg": 101.6587,
      "mean_motion_rev_day": 15.27585574
    }
  ]
}